[["ISS (ZARYA)", 25544, "1 25544U 98067A   26204.83049110  .00009620  00000+0  18169-3 0  9994", "2 25544  51.6314 118.7564 0006921 330.4598  29.5998 15.49124476577435", -1.8], ["SL-16 R/B", 24298, "1 24298U 96051B   26204.36165839  .00000159  00000+0  11242-3 0  9998", "2 24298  70.7639 248.0951 0018350 287.5632  72.3483 14.12459817540804", null], ["ORBVIEW 2 (SEASTAR)", 24883, "1 24883U 97037A   26204.33303818  .00000183  00000+0  79708-4 0  9990", "2 24883  98.8722  12.3603 0002750  43.9924 316.1479 14.35569680527937", null], ["SL-16 R/B", 25400, "1 25400U 98043G   26204.84730779  .00000040  00000+0  35606-4 0  9991", "2 25400  98.8384 159.3262 0009579 346.4051  13.6869 14.26073866458399", null], ["SL-16 R/B", 25407, "1 25407U 98045B   26204.39969002  .00000244  00000+0  14728-3 0  9990", "2 25407  71.0097 256.1743 0007733 194.7119 165.3781 14.16206476446310", null], ["CZ-4B R/B", 25732, "1 25732U 99025C   26204.56089564  .00000020  00000+0  30494-4 0  9996", "2 25732  98.6468 245.4807 0036246 315.2470 209.8473 14.18288692407424", null], ["OKEAN-O", 25860, "1 25860U 99039A   26204.50630832  .00000463  00000+0  67254-4 0  9992", "2 25860  97.9293 262.8834 0000941 102.7494 257.3823 14.80504211454487", null], ["SL-16 R/B", 25861, "1 25861U 99039B   26204.62946351  .00000412  00000+0  58854-4 0  9992", "2 25861  97.9816 263.3845 0015003 170.8547 189.2941 14.81877015456995", null], ["DELTA 2 R/B", 25876, "1 25876U 99041E   26204.76908744  .00001527  00000+0  28393-3 0  9992", "2 25876  51.7616 117.6352 0501474  30.0694 332.8050 14.12110776382255", null], ["HELIOS 1B", 25977, "1 25977U 99064A   26204.69153360  .00001189  00000+0  13562-3 0  9993", "2 25977  98.1573 110.8827 0001543  44.4548 315.6791 14.88091324705480", null], ["TERRA", 25994, "1 25994U 99068A   26204.85944066  .00000330  00000+0  76192-4 0  9991", "2 25994  97.9435 252.9477 0003661 105.7480 308.7370 14.61128749414960", 3.5], ["SL-16 R/B", 26070, "1 26070U 00006B   26204.37957994  .00000338  00000+0  19579-3 0  9995", "2 26070  71.0014 172.5240 0017575 328.5620  31.4451 14.15840808367768", null], ["TITAN 4B R/B", 26474, "1 26474U 00047B   26204.81580394  .00002985  00000+0  18536-3 0  9995", "2 26474  67.9892  17.4554 0045722 250.0836 109.5385 15.10367235413468", null], ["ENVISAT", 27386, "1 27386U 02009A   26204.88286102  .00000070  00000+0  36607-4 0  9998", "2 27386  98.3851 155.3867 0001289  82.0020 295.5764 14.39072267278768", null], ["IDEFIX & ARIANE 42P R/B", 27422, "1 27422U 02021B   26204.34649051  .00000161  00000+0  77780-4 0  9998", "2 27422  98.5941 141.4388 0012371 143.2487 216.9546 14.31096471263423", null], ["AQUA", 27424, "1 27424U 02022A   26204.86474439  .00000635  00000+0  13619-3 0  9990", "2 27424  98.4303 174.8863 0001374 102.1497 288.0645 14.62137943288634", 3.5], ["CZ-4B R/B", 27432, "1 27432U 02024C   26204.61482933  .00000011  00000+0  28391-4 0  9994", "2 27432  98.8678 257.1944 0050032 358.1214 154.6194 14.14569187248451", null], ["MIDORI II (ADEOS-II)", 27597, "1 27597U 02056A   26204.88866428  .00000200  00000+0  96139-4 0  9990", "2 27597  98.7900 164.4651 0001098  30.7729 329.3516 14.29366319229756", null], ["H-2A R/B", 27601, "1 27601U 02056E   26204.84982939  .00000234  00000+0  96060-4 0  9998", "2 27601  98.3333 160.1920 0071269 115.4830 265.8686 14.33837581233623", null], ["CZ-4B R/B", 28059, "1 28059U 03049C   26204.46962376  .00000255  00000+0  69928-4 0  9996", "2 28059  98.6916 204.7638 0048152 175.9241 184.2357 14.55120001206348", null], ["CZ-2C R/B", 28222, "1 28222U 04012C   26204.19413049  .00172298  00000+0  64998-3 0  9995", "2 28222  97.7022 284.2648 0010277 167.2657 192.8875 15.87227485225592", null], ["SL-16 R/B", 28353, "1 28353U 04021B   26204.36576155 -.00000230  00000+0 -94719-4 0  9990", "2 28353  71.0025 307.7626 0006005 217.1052 142.9656 14.14615242142020", null], ["CZ-4B R/B", 28415, "1 28415U 04035C   26204.54077082  .00007312  00000+0  24280-3 0  9990", "2 28415  97.3357 237.2128 0030001 202.0029 157.9926 15.31078211200684", null], ["CZ-2C R/B", 28480, "1 28480U 04046B   26204.30171071  .00000112  00000+0  56031-4 0  9992", "2 28480  98.1906 110.8184 0140486 113.5608 248.0402 14.27035251127849", null], ["ARIANE 5 R/B", 28499, "1 28499U 04049H   26204.43681940  .00000522  00000+0  64246-4 0  9992", "2 28499  98.2748  18.0977 0082502 271.1407  88.0356 14.85486127165944", null], ["CZ-2D R/B", 28738, "1 28738U 05024B   26204.51202316  .00074504  00000+0  53008-3 0  9991", "2 28738  97.3472 225.8630 0003784 172.5565 187.5756 15.73635348161047", null], ["ALOS (DAICHI)", 28931, "1 28931U 06002A   26204.36870542  .00000984  00000+0  17190-3 0  9991", "2 28931  98.1342 159.8290 0001035 110.9546 249.1770 14.70114782 93413", null], ["H-2A R/B", 28932, "1 28932U 06002B   26204.43370454  .00008243  00000+0  38937-3 0  9995", "2 28932  98.2600   3.5628 0051200 138.2774 222.2380 15.18547085115027", null], ["RESURS-DK 1", 29228, "1 29228U 06021A   26204.32442911  .00001589  00000+0  95009-4 0  9991", "2 29228  69.9299 245.9974 0007572 262.5212  97.5094 15.13340824108048", null], ["CZ-4B R/B", 29507, "1 29507U 06046C   26204.83955392  .00004102  00000+0  20211-3 0  9992", "2 29507  97.5435 249.3342 0033387 152.5633 207.7373 15.18034607 80691", null], ["CZ-2C R/B", 31114, "1 31114U 07010B   26204.27042090  .00000077  00000+0  54595-4 0  9991", "2 31114  98.4119 310.8610 0057767 259.7960  99.6700 14.20283420998961", null]]